{
  "type": "FeatureCollection",
  "generator": "overpass-turbo",
  "copyright": "The data included in this document is from www.openstreetmap.org. The data is made available under ODbL.",
  "timestamp": "2015-11-17T02:47:01Z",
  "features": [
    {
      "type": "Feature",
      "id": "node/412330127",
      "properties": {
        "@id": "node/412330127",
        "name": "SportXpert",
        "shop": "bicycle"
      },
      "geometry": {
        "type": "Point",
        "coordinates": [
          -70.5641549,
          -33.4082734
        ]
      }
    },
    {
      "type": "Feature",
      "id": "node/432757969",
      "properties": {
        "@id": "node/432757969",
        "name": "Cannondale",
        "shop": "bicycle"
      },
      "geometry": {
        "type": "Point",
        "coordinates": [
          -70.5178695,
          -33.3732239
        ]
      }
    },
    {
      "type": "Feature",
      "id": "node/432757970",
      "properties": {
        "@id": "node/432757970",
        "name": "Giant",
        "shop": "bicycle"
      },
      "geometry": {
        "type": "Point",
        "coordinates": [
          -70.5176893,
          -33.3732096
        ]
      }
    },
    {
      "type": "Feature",
      "id": "node/583356646",
      "properties": {
        "@id": "node/583356646",
        "name": "Da'Ski",
        "shop": "bicycle"
      },
      "geometry": {
        "type": "Point",
        "coordinates": [
          -70.557481,
          -33.404552
        ]
      }
    },
    {
      "type": "Feature",
      "id": "node/595301256",
      "properties": {
        "@id": "node/595301256",
        "addr:street": "Avenida La Dehesa",
        "name": "Giant",
        "shop": "bicycle"
      },
      "geometry": {
        "type": "Point",
        "coordinates": [
          -70.519732,
          -33.350814
        ]
      }
    },
    {
      "type": "Feature",
      "id": "node/668437059",
      "properties": {
        "@id": "node/668437059",
        "addr:door": "22",
        "addr:housenumber": "20",
        "addr:street": "Manuel Barros Borgoño",
        "name": "Nación Pedal",
        "opening_hours": "Mo-Fr 10:00-15:00, 16:00-18:00; Sa 11:00-15:00",
        "phone": "+56 2 22351266",
        "shop": "bicycle",
        "source": "www.baik.cl",
        "website": "http://www.nacionpedal.com"
      },
      "geometry": {
        "type": "Point",
        "coordinates": [
          -70.6193578,
          -33.4288043
        ]
      }
    },
    {
      "type": "Feature",
      "id": "node/668438061",
      "properties": {
        "@id": "node/668438061",
        "addr:city": "Providencia",
        "addr:country": "CL",
        "addr:full": "Antonio Bellet 31, Providencia, Santiago, Chile",
        "addr:housenumber": "31",
        "addr:street": "Antonio Bellet",
        "contact:phone": "+5622518401",
        "name": "Taller EDUARDO SILVA",
        "shop": "bicycle",
        "source": "Bicimapa - UAHC"
      },
      "geometry": {
        "type": "Point",
        "coordinates": [
          -70.61674,
          -33.4265943
        ]
      }
    },
    {
      "type": "Feature",
      "id": "node/923077632",
      "properties": {
        "@id": "node/923077632",
        "name": "BW&M",
        "shop": "bicycle"
      },
      "geometry": {
        "type": "Point",
        "coordinates": [
          -70.5822999,
          -33.3973317
        ]
      }
    },
    {
      "type": "Feature",
      "id": "node/924665595",
      "properties": {
        "@id": "node/924665595",
        "name": "Dahon",
        "shop": "bicycle"
      },
      "geometry": {
        "type": "Point",
        "coordinates": [
          -70.5578215,
          -33.4052396
        ]
      }
    },
    {
      "type": "Feature",
      "id": "node/991961397",
      "properties": {
        "@id": "node/991961397",
        "addr:city": "Santiago",
        "addr:housenumber": "4868",
        "addr:postcode": "7630225",
        "addr:street": "Avenida Vitacura",
        "name": "Bicimundo",
        "phone": "+562 218 6543",
        "shop": "bicycle"
      },
      "geometry": {
        "type": "Point",
        "coordinates": [
          -70.585232,
          -33.397666
        ]
      }
    },
    {
      "type": "Feature",
      "id": "node/1012905409",
      "properties": {
        "@id": "node/1012905409",
        "shop": "bicycle"
      },
      "geometry": {
        "type": "Point",
        "coordinates": [
          -70.6280136,
          -33.4309757
        ]
      }
    },
    {
      "type": "Feature",
      "id": "node/1074768292",
      "properties": {
        "@id": "node/1074768292",
        "name": "Importadora Caupolican",
        "shop": "bicycle"
      },
      "geometry": {
        "type": "Point",
        "coordinates": [
          -70.6498305,
          -33.456352
        ]
      }
    },
    {
      "type": "Feature",
      "id": "node/1074784119",
      "properties": {
        "@id": "node/1074784119",
        "name": "Marga",
        "shop": "bicycle"
      },
      "geometry": {
        "type": "Point",
        "coordinates": [
          -70.6498949,
          -33.4560253
        ]
      }
    },
    {
      "type": "Feature",
      "id": "node/1074784125",
      "properties": {
        "@id": "node/1074784125",
        "name": "Terrabike",
        "shop": "bicycle"
      },
      "geometry": {
        "type": "Point",
        "coordinates": [
          -70.6494067,
          -33.4567683
        ]
      }
    },
    {
      "type": "Feature",
      "id": "node/1074784127",
      "properties": {
        "@id": "node/1074784127",
        "name": "Bicicletas Vargas",
        "shop": "bicycle"
      },
      "geometry": {
        "type": "Point",
        "coordinates": [
          -70.6497393,
          -33.456822
        ]
      }
    },
    {
      "type": "Feature",
      "id": "node/1074784129",
      "properties": {
        "@id": "node/1074784129",
        "name": "Juanito Mena",
        "shop": "bicycle"
      },
      "geometry": {
        "type": "Point",
        "coordinates": [
          -70.6496642,
          -33.4572785
        ]
      }
    },
    {
      "type": "Feature",
      "id": "node/1118043065",
      "properties": {
        "@id": "node/1118043065",
        "addr:street": "Avenida La Dehesa",
        "shop": "bicycle"
      },
      "geometry": {
        "type": "Point",
        "coordinates": [
          -70.5176299,
          -33.3562649
        ]
      }
    },
    {
      "type": "Feature",
      "id": "node/1118046970",
      "properties": {
        "@id": "node/1118046970",
        "addr:housenumber": "1450",
        "addr:street": "Av. La Dehesa",
        "name": "Total Bike",
        "shop": "bicycle"
      },
      "geometry": {
        "type": "Point",
        "coordinates": [
          -70.5181824,
          -33.3592042
        ]
      }
    },
    {
      "type": "Feature",
      "id": "node/1128666807",
      "properties": {
        "@id": "node/1128666807",
        "addr:housenumber": "1301",
        "addr:street": "Avda. Lo Barnechea",
        "name": "Respuestos Bicicletas",
        "shop": "bicycle"
      },
      "geometry": {
        "type": "Point",
        "coordinates": [
          -70.5071853,
          -33.3564395
        ]
      }
    },
    {
      "type": "Feature",
      "id": "node/1258969365",
      "properties": {
        "@id": "node/1258969365",
        "name": "Cardenas",
        "shop": "bicycle",
        "website": "http://www.bicicletascardenas.cl/"
      },
      "geometry": {
        "type": "Point",
        "coordinates": [
          -70.6501741,
          -33.4552501
        ]
      }
    },
    {
      "type": "Feature",
      "id": "node/1258969372",
      "properties": {
        "@id": "node/1258969372",
        "name": "Bicicletas San Diego",
        "shop": "bicycle"
      },
      "geometry": {
        "type": "Point",
        "coordinates": [
          -70.6497342,
          -33.4551696
        ]
      }
    },
    {
      "type": "Feature",
      "id": "node/1390708129",
      "properties": {
        "@id": "node/1390708129",
        "shop": "bicycle"
      },
      "geometry": {
        "type": "Point",
        "coordinates": [
          -70.6195309,
          -33.4443722
        ]
      }
    },
    {
      "type": "Feature",
      "id": "node/1653317779",
      "properties": {
        "@id": "node/1653317779",
        "name": "Eco Bike",
        "shop": "bicycle",
        "wheelchair": "limited"
      },
      "geometry": {
        "type": "Point",
        "coordinates": [
          -70.5652459,
          -33.4384543
        ]
      }
    },
    {
      "type": "Feature",
      "id": "node/1661021213",
      "properties": {
        "@id": "node/1661021213",
        "shop": "bicycle"
      },
      "geometry": {
        "type": "Point",
        "coordinates": [
          -70.5615746,
          -33.4450607
        ]
      }
    },
    {
      "type": "Feature",
      "id": "node/1684161543",
      "properties": {
        "@id": "node/1684161543",
        "name": "Grito Bikes",
        "service:bicycle:repair": "yes",
        "service:bicycle:retail": "yes",
        "shop": "bicycle"
      },
      "geometry": {
        "type": "Point",
        "coordinates": [
          -70.6264739,
          -33.4440214
        ]
      }
    },
    {
      "type": "Feature",
      "id": "node/1702068318",
      "properties": {
        "@id": "node/1702068318",
        "name": "Sucucho ByC",
        "shop": "bicycle",
        "website": "http://www.facebook.com/sucuchobyc"
      },
      "geometry": {
        "type": "Point",
        "coordinates": [
          -70.6301516,
          -33.4408377
        ]
      }
    },
    {
      "type": "Feature",
      "id": "node/1709029937",
      "properties": {
        "@id": "node/1709029937",
        "addr:city": "La Reina",
        "addr:housenumber": "6000",
        "addr:street": "Av. Larraín",
        "shop": "bicycle"
      },
      "geometry": {
        "type": "Point",
        "coordinates": [
          -70.5679596,
          -33.4531512
        ]
      }
    },
    {
      "type": "Feature",
      "id": "node/1719287452",
      "properties": {
        "@id": "node/1719287452",
        "shop": "bicycle"
      },
      "geometry": {
        "type": "Point",
        "coordinates": [
          -70.5531821,
          -33.4306904
        ]
      }
    },
    {
      "type": "Feature",
      "id": "node/1871938969",
      "properties": {
        "@id": "node/1871938969",
        "name": "Chancha Pig",
        "shop": "bicycle",
        "website": "www.lachanchapig.cl"
      },
      "geometry": {
        "type": "Point",
        "coordinates": [
          -70.5445055,
          -33.3901919
        ]
      }
    },
    {
      "type": "Feature",
      "id": "node/1905994320",
      "properties": {
        "@id": "node/1905994320",
        "name": "Bicicletas",
        "shop": "bicycle"
      },
      "geometry": {
        "type": "Point",
        "coordinates": [
          -70.5700249,
          -33.5415224
        ]
      }
    },
    {
      "type": "Feature",
      "id": "node/1998619733",
      "properties": {
        "@id": "node/1998619733",
        "addr:housenumber": "9851",
        "addr:street": "Los Rododendros",
        "designation": "Santiago Scooters",
        "name": "Scooters & Bicycles Rental",
        "shop": "bicycle",
        "source": "www.santiagoscooters.cl",
        "website": "www.santiagoscooters.cl"
      },
      "geometry": {
        "type": "Point",
        "coordinates": [
          -70.5395727,
          -33.3839286
        ]
      }
    },
    {
      "type": "Feature",
      "id": "node/2055372745",
      "properties": {
        "@id": "node/2055372745",
        "addr:housenumber": "2785",
        "addr:street": "Avenida Irarrazabal",
        "name": "Bicicletas Lascon",
        "shop": "bicycle"
      },
      "geometry": {
        "type": "Point",
        "coordinates": [
          -70.6021201,
          -33.4546056
        ]
      }
    },
    {
      "type": "Feature",
      "id": "node/2111013575",
      "properties": {
        "@id": "node/2111013575",
        "addr:housenumber": "335",
        "addr:street": "Crescente Errazuriz",
        "alt_name": "KMLN Bikes",
        "name": "Kamaleon Bikes",
        "shop": "bicycle"
      },
      "geometry": {
        "type": "Point",
        "coordinates": [
          -70.6261738,
          -33.4573829
        ]
      }
    },
    {
      "type": "Feature",
      "id": "node/2440961460",
      "properties": {
        "@id": "node/2440961460",
        "name": "Los Tesoros de Maria",
        "shop": "bicycle"
      },
      "geometry": {
        "type": "Point",
        "coordinates": [
          -70.5909848,
          -33.4315457
        ]
      }
    },
    {
      "type": "Feature",
      "id": "node/2449994053",
      "properties": {
        "@id": "node/2449994053",
        "addr:city": "Providencia",
        "addr:housenumber": "2815",
        "addr:street": "Diego de Almagro",
        "name": "Traffik",
        "phone": "+56228915214",
        "shop": "bicycle",
        "website": "http://www.traffik.cl/"
      },
      "geometry": {
        "type": "Point",
        "coordinates": [
          -70.5912486,
          -33.4380422
        ]
      }
    },
    {
      "type": "Feature",
      "id": "node/2459726705",
      "properties": {
        "@id": "node/2459726705",
        "name": "Taller de bicicletas López",
        "shop": "bicycle"
      },
      "geometry": {
        "type": "Point",
        "coordinates": [
          -70.6356737,
          -33.4308956
        ]
      }
    },
    {
      "type": "Feature",
      "id": "node/2473029619",
      "properties": {
        "@id": "node/2473029619",
        "shop": "bicycle"
      },
      "geometry": {
        "type": "Point",
        "coordinates": [
          -70.7745943,
          -33.5308631
        ]
      }
    },
    {
      "type": "Feature",
      "id": "node/2496703363",
      "properties": {
        "@id": "node/2496703363",
        "addr:city": "Santiago",
        "addr:housenumber": "1556",
        "addr:street": "Av. Irarrazaval",
        "name": "Conaride",
        "shop": "bicycle"
      },
      "geometry": {
        "type": "Point",
        "coordinates": [
          -70.614497,
          -33.4529453
        ]
      }
    },
    {
      "type": "Feature",
      "id": "node/2574433576",
      "properties": {
        "@id": "node/2574433576",
        "addr:city": "Las Condes",
        "addr:housename": "Omnium, local 18",
        "addr:housenumber": "4900",
        "addr:street": "Avenida Apoquindo",
        "name": "Bikespot",
        "opening_hours": "10:00 a 14:00 y 15:00 a 20:00",
        "phone": "+56222420213",
        "shop": "bicycle",
        "website": "http://www.bikespot.cl",
        "wheelchair": "yes"
      },
      "geometry": {
        "type": "Point",
        "coordinates": [
          -70.5784709,
          -33.4115207
        ]
      }
    },
    {
      "type": "Feature",
      "id": "node/2630699605",
      "properties": {
        "@id": "node/2630699605",
        "addr:city": "Providencia",
        "addr:housename": "Holanda 079, Local 211",
        "addr:housenumber": "079",
        "addr:street": "Avenida Holanda",
        "name": "BC-Help",
        "note": "> venta al por menor de bicicletas, repuestos y accesorios > servicios en el día. > retiro y despacho gratuito para mantenciones, demas servicios con recargo. > bicicletas de reemplazo para servicios de mantención.",
        "opening_hours": "Mo-Fr 9:00-19:30; Sa 10:00-14:00",
        "phone": "+56222317687",
        "shop": "bicycle",
        "source": "matias sime",
        "website": "www.bc-help.cl"
      },
      "geometry": {
        "type": "Point",
        "coordinates": [
          -70.6039971,
          -33.4183411
        ]
      }
    },
    {
      "type": "Feature",
      "id": "node/2723929724",
      "properties": {
        "@id": "node/2723929724",
        "addr:city": "santiago",
        "addr:housenumber": "1256",
        "addr:street": "Enrique Olivares",
        "name": "Bicicletas Wilson",
        "shop": "bicycle"
      },
      "geometry": {
        "type": "Point",
        "coordinates": [
          -70.5747673,
          -33.5394982
        ]
      }
    },
    {
      "type": "Feature",
      "id": "node/2749785931",
      "properties": {
        "@id": "node/2749785931",
        "name": "Don Nelson",
        "shop": "bicycle"
      },
      "geometry": {
        "type": "Point",
        "coordinates": [
          -70.6509157,
          -33.4562133
        ]
      }
    },
    {
      "type": "Feature",
      "id": "node/2749785935",
      "properties": {
        "@id": "node/2749785935",
        "name": "Emilio Ayala",
        "shop": "bicycle"
      },
      "geometry": {
        "type": "Point",
        "coordinates": [
          -70.6464527,
          -33.4548217
        ]
      }
    },
    {
      "type": "Feature",
      "id": "node/2749785939",
      "properties": {
        "@id": "node/2749785939",
        "name": "Una Velocidad",
        "shop": "bicycle",
        "website": "http://www.unavelocidad.com"
      },
      "geometry": {
        "type": "Point",
        "coordinates": [
          -70.6482473,
          -33.4345275
        ]
      }
    },
    {
      "type": "Feature",
      "id": "node/2761010983",
      "properties": {
        "@id": "node/2761010983",
        "addr:city": "Santiago",
        "addr:housenumber": "3782",
        "addr:street": "Simón Bolívar",
        "shop": "bicycle"
      },
      "geometry": {
        "type": "Point",
        "coordinates": [
          -70.5899948,
          -33.4483689
        ]
      }
    },
    {
      "type": "Feature",
      "id": "node/2811576942",
      "properties": {
        "@id": "node/2811576942",
        "addr:housenumber": "956",
        "addr:street": "Hamburgo",
        "name": "La Fuga",
        "shop": "bicycle"
      },
      "geometry": {
        "type": "Point",
        "coordinates": [
          -70.5770429,
          -33.4456965
        ]
      }
    },
    {
      "type": "Feature",
      "id": "node/2811580954",
      "properties": {
        "@id": "node/2811580954",
        "addr:city": "santiago",
        "addr:housenumber": "4536",
        "addr:street": "simon bolivar",
        "name": "You Bike",
        "shop": "bicycle"
      },
      "geometry": {
        "type": "Point",
        "coordinates": [
          -70.5832196,
          -33.4483412
        ]
      }
    },
    {
      "type": "Feature",
      "id": "node/2822775160",
      "properties": {
        "@id": "node/2822775160",
        "name": "la rueda bolañera",
        "shop": "bicycle"
      },
      "geometry": {
        "type": "Point",
        "coordinates": [
          -70.666684,
          -33.4413326
        ]
      }
    },
    {
      "type": "Feature",
      "id": "node/2847331037",
      "properties": {
        "@id": "node/2847331037",
        "addr:city": "Providencia",
        "addr:housenumber": "963",
        "addr:postcode": "7501184",
        "addr:street": "Italia",
        "name": "mi bicio",
        "phone": "+56 2 2706 5718",
        "shop": "bicycle",
        "website": "http://mibicio.cl"
      },
      "geometry": {
        "type": "Point",
        "coordinates": [
          -70.6260697,
          -33.443555
        ]
      }
    },
    {
      "type": "Feature",
      "id": "node/2863083044",
      "properties": {
        "@id": "node/2863083044",
        "shop": "bicycle"
      },
      "geometry": {
        "type": "Point",
        "coordinates": [
          -70.7709326,
          -33.535929
        ]
      }
    },
    {
      "type": "Feature",
      "id": "node/2863083045",
      "properties": {
        "@id": "node/2863083045",
        "shop": "bicycle"
      },
      "geometry": {
        "type": "Point",
        "coordinates": [
          -70.7736691,
          -33.5319454
        ]
      }
    },
    {
      "type": "Feature",
      "id": "node/3052904323",
      "properties": {
        "@id": "node/3052904323",
        "name": "Taller de Bicicletas",
        "shop": "bicycle"
      },
      "geometry": {
        "type": "Point",
        "coordinates": [
          -70.7308531,
          -33.444262
        ]
      }
    },
    {
      "type": "Feature",
      "id": "node/3191088172",
      "properties": {
        "@id": "node/3191088172",
        "addr:city": "Ñuñoa",
        "addr:housenumber": "3571",
        "addr:street": "Avenida Presidente Battle y Ordoñez",
        "name": "BiciRevolución",
        "opening_hours": "Mo-Fr 12:00-20:00;Sa 10:00-16:00",
        "service:bicycle:rental": "yes",
        "service:bicycle:repair": "yes",
        "shop": "bicycle"
      },
      "geometry": {
        "type": "Point",
        "coordinates": [
          -70.5921386,
          -33.4482556
        ]
      }
    },
    {
      "type": "Feature",
      "id": "node/3468378580",
      "properties": {
        "@id": "node/3468378580",
        "name": "Taller Bicicletas La Familia",
        "shop": "bicycle"
      },
      "geometry": {
        "type": "Point",
        "coordinates": [
          -70.7192852,
          -33.4438968
        ]
      }
    },
    {
      "type": "Feature",
      "id": "node/3504126815",
      "properties": {
        "@id": "node/3504126815",
        "addr:city": "Santiago",
        "addr:street": "Gran Avenida José Miguel Carrera",
        "name": "Regazza",
        "operator": "Claudia",
        "shop": "bicycle"
      },
      "geometry": {
        "type": "Point",
        "coordinates": [
          -70.6590415,
          -33.5186949
        ]
      }
    },
    {
      "type": "Feature",
      "id": "node/3750035990",
      "properties": {
        "@id": "node/3750035990",
        "name": "Biciboss",
        "shop": "bicycle"
      },
      "geometry": {
        "type": "Point",
        "coordinates": [
          -70.6651483,
          -33.436218
        ]
      }
    },
    {
      "type": "Feature",
      "id": "node/3753838314",
      "properties": {
        "@id": "node/3753838314",
        "name": "Bicicletas Trinx",
        "shop": "bicycle"
      },
      "geometry": {
        "type": "Point",
        "coordinates": [
          -70.5600234,
          -33.4072984
        ]
      }
    },
    {
      "type": "Feature",
      "id": "node/3796314266",
      "properties": {
        "@id": "node/3796314266",
        "name": "KTM Bikes Chile",
        "shop": "bicycle"
      },
      "geometry": {
        "type": "Point",
        "coordinates": [
          -70.5466331,
          -33.4082951
        ]
      }
    },
    {
      "type": "Feature",
      "id": "node/3796319873",
      "properties": {
        "@id": "node/3796319873",
        "name": "ExtremeZone",
        "shop": "bicycle"
      },
      "geometry": {
        "type": "Point",
        "coordinates": [
          -70.5489391,
          -33.3889373
        ]
      }
    },
    {
      "type": "Feature",
      "id": "node/3796319874",
      "properties": {
        "@id": "node/3796319874",
        "name": "Just Bikes",
        "shop": "bicycle"
      },
      "geometry": {
        "type": "Point",
        "coordinates": [
          -70.5498795,
          -33.3867446
        ]
      }
    },
    {
      "type": "Feature",
      "id": "node/3820623692",
      "properties": {
        "@id": "node/3820623692",
        "shop": "bicycle"
      },
      "geometry": {
        "type": "Point",
        "coordinates": [
          -70.6663012,
          -33.4557878
        ]
      }
    }
  ]
}